[{"OBJECT_NAME":"ONEWEB-0214","OBJECT_ID":"2021-045X","EPOCH":"2026-03-03T16:03:45.016992","MEAN_MOTION":13.15547304,"ECCENTRICITY":0.00012027,"INCLINATION":87.8959,"RA_OF_ASC_NODE":280.2421,"ARG_OF_PERICENTER":99.3244,"MEAN_ANOMALY":260.8022,"EPHEMERIS_TYPE":0,"CLASSIFICATION_TYPE":"U","NORAD_CAT_ID":48788,"ELEMENT_SET_NO":999,"REV_AT_EPOCH":23041,"BSTAR":0.00039132522,"MEAN_MOTION_DOT":1.6e-6,"MEAN_MOTION_DDOT":0},{"OBJECT_NAME":"ONEWEB-0221","OBJECT_ID":"2021-045Y","EPOCH":"2026-03-03T16:14:00.570336","MEAN_MOTION":13.15547418,"ECCENTRICITY":0.00016405,"INCLINATION":87.8954,"RA_OF_ASC_NODE":280.251,"ARG_OF_PERICENTER":95.9631,"MEAN_ANOMALY":264.1686,"EPHEMERIS_TYPE":0,"CLASSIFICATION_TYPE":"U","NORAD_CAT_ID":48789,"ELEMENT_SET_NO":999,"REV_AT_EPOCH":23050,"BSTAR":0.00037135821,"MEAN_MOTION_DOT":1.53e-6,"MEAN_MOTION_DDOT":0},{"OBJECT_NAME":"ONEWEB-0213","OBJECT_ID":"2021-045Z","EPOCH":"2026-03-03T15:58:02.434080","MEAN_MOTION":13.15547886,"ECCENTRICITY":0.00015063,"INCLINATION":87.8957,"RA_OF_ASC_NODE":280.2569,"ARG_OF_PERICENTER":100.7613,"MEAN_ANOMALY":259.3687,"EPHEMERIS_TYPE":0,"CLASSIFICATION_TYPE":"U","NORAD_CAT_ID":48790,"ELEMENT_SET_NO":999,"REV_AT_EPOCH":23056,"BSTAR":0.0003387403,"MEAN_MOTION_DOT":1.4e-6,"MEAN_MOTION_DDOT":0},{"OBJECT_NAME":"ONEWEB-0212","OBJECT_ID":"2021-045AA","EPOCH":"2026-03-03T15:24:57.052800","MEAN_MOTION":13.15546897,"ECCENTRICITY":0.0001623,"INCLINATION":87.8956,"RA_OF_ASC_NODE":280.2563,"ARG_OF_PERICENTER":87.5604,"MEAN_ANOMALY":272.5712,"EPHEMERIS_TYPE":0,"CLASSIFICATION_TYPE":"U","NORAD_CAT_ID":48791,"ELEMENT_SET_NO":999,"REV_AT_EPOCH":23055,"BSTAR":-3.2734e-5,"MEAN_MOTION_DOT":1.0e-8,"MEAN_MOTION_DDOT":0},{"OBJECT_NAME":"ONEWEB-0227","OBJECT_ID":"2021-045AB","EPOCH":"2026-03-03T15:23:48.877152","MEAN_MOTION":13.15546909,"ECCENTRICITY":0.0001624,"INCLINATION":87.895,"RA_OF_ASC_NODE":280.259,"ARG_OF_PERICENTER":91.4683,"MEAN_ANOMALY":268.6634,"EPHEMERIS_TYPE":0,"CLASSIFICATION_TYPE":"U","NORAD_CAT_ID":48792,"ELEMENT_SET_NO":999,"REV_AT_EPOCH":23050,"BSTAR":-7.3355e-5,"MEAN_MOTION_DOT":-1.5e-7,"MEAN_MOTION_DDOT":0},{"OBJECT_NAME":"ONEWEB-0226","OBJECT_ID":"2021-045AC","EPOCH":"2026-03-03T15:14:40.902432","MEAN_MOTION":13.15547695,"ECCENTRICITY":0.0001428,"INCLINATION":87.8946,"RA_OF_ASC_NODE":280.2696,"ARG_OF_PERICENTER":100.6651,"MEAN_ANOMALY":259.464,"EPHEMERIS_TYPE":0,"CLASSIFICATION_TYPE":"U","NORAD_CAT_ID":48793,"ELEMENT_SET_NO":999,"REV_AT_EPOCH":23047,"BSTAR":-0.00025922,"MEAN_MOTION_DOT":-8.5e-7,"MEAN_MOTION_DDOT":0},{"OBJECT_NAME":"ONEWEB-0224","OBJECT_ID":"2021-045AD","EPOCH":"2026-03-03T16:11:43.827648","MEAN_MOTION":13.155485,"ECCENTRICITY":0.00024652,"INCLINATION":87.8946,"RA_OF_ASC_NODE":280.2978,"ARG_OF_PERICENTER":95.0249,"MEAN_ANOMALY":265.1163,"EPHEMERIS_TYPE":0,"CLASSIFICATION_TYPE":"U","NORAD_CAT_ID":48794,"ELEMENT_SET_NO":999,"REV_AT_EPOCH":23040,"BSTAR":0.00039534728,"MEAN_MOTION_DOT":1.62e-6,"MEAN_MOTION_DDOT":0},{"OBJECT_NAME":"ONEWEB-0233","OBJECT_ID":"2021-045AE","EPOCH":"2026-03-03T16:18:22.586976","MEAN_MOTION":13.15547717,"ECCENTRICITY":0.00017073,"INCLINATION":87.8942,"RA_OF_ASC_NODE":280.3061,"ARG_OF_PERICENTER":97.2081,"MEAN_ANOMALY":262.9244,"EPHEMERIS_TYPE":0,"CLASSIFICATION_TYPE":"U","NORAD_CAT_ID":48795,"ELEMENT_SET_NO":999,"REV_AT_EPOCH":23042,"BSTAR":0.00037124304,"MEAN_MOTION_DOT":1.53e-6,"MEAN_MOTION_DDOT":0},{"OBJECT_NAME":"ONEWEB-0190","OBJECT_ID":"2021-045AF","EPOCH":"2026-03-03T16:00:19.370304","MEAN_MOTION":13.15547955,"ECCENTRICITY":0.00016614,"INCLINATION":87.8944,"RA_OF_ASC_NODE":280.2696,"ARG_OF_PERICENTER":114.573,"MEAN_ANOMALY":245.5573,"EPHEMERIS_TYPE":0,"CLASSIFICATION_TYPE":"U","NORAD_CAT_ID":48796,"ELEMENT_SET_NO":999,"REV_AT_EPOCH":23049,"BSTAR":0.00040393422,"MEAN_MOTION_DOT":1.65e-6,"MEAN_MOTION_DDOT":0},{"OBJECT_NAME":"ONEWEB-0236","OBJECT_ID":"2021-045AG","EPOCH":"2026-03-03T16:25:25.055328","MEAN_MOTION":13.15546903,"ECCENTRICITY":0.00016426,"INCLINATION":87.894,"RA_OF_ASC_NODE":280.2774,"ARG_OF_PERICENTER":83.1993,"MEAN_ANOMALY":276.9324,"EPHEMERIS_TYPE":0,"CLASSIFICATION_TYPE":"U","NORAD_CAT_ID":48797,"ELEMENT_SET_NO":999,"REV_AT_EPOCH":23038,"BSTAR":0.000611889,"MEAN_MOTION_DOT":2.43e-6,"MEAN_MOTION_DDOT":0},{"OBJECT_NAME":"ONEWEB-0248","OBJECT_ID":"2021-045AH","EPOCH":"2026-03-03T14:54:10.092960","MEAN_MOTION":13.15550362,"ECCENTRICITY":0.0001919,"INCLINATION":87.8956,"RA_OF_ASC_NODE":280.2626,"ARG_OF_PERICENTER":101.1329,"MEAN_ANOMALY":259.0017,"EPHEMERIS_TYPE":0,"CLASSIFICATION_TYPE":"U","NORAD_CAT_ID":48798,"ELEMENT_SET_NO":999,"REV_AT_EPOCH":23053,"BSTAR":-3.7935e-5,"MEAN_MOTION_DOT":-1.0e-8,"MEAN_MOTION_DDOT":0},{"OBJECT_NAME":"ONEWEB-0225","OBJECT_ID":"2021-045AJ","EPOCH":"2026-03-03T15:26:05.472960","MEAN_MOTION":13.1554751,"ECCENTRICITY":0.0001677,"INCLINATION":87.8944,"RA_OF_ASC_NODE":280.2745,"ARG_OF_PERICENTER":109.5792,"MEAN_ANOMALY":250.552,"EPHEMERIS_TYPE":0,"CLASSIFICATION_TYPE":"U","NORAD_CAT_ID":48799,"ELEMENT_SET_NO":999,"REV_AT_EPOCH":23054,"BSTAR":1.5291e-6,"MEAN_MOTION_DOT":1.3e-7,"MEAN_MOTION_DDOT":0},{"OBJECT_NAME":"ONEWEB-0215","OBJECT_ID":"2021-045AK","EPOCH":"2026-03-03T14:42:45.093024","MEAN_MOTION":13.1554795,"ECCENTRICITY":0.0001837,"INCLINATION":87.8959,"RA_OF_ASC_NODE":280.2527,"ARG_OF_PERICENTER":111.6689,"MEAN_ANOMALY":248.4637,"EPHEMERIS_TYPE":0,"CLASSIFICATION_TYPE":"U","NORAD_CAT_ID":48800,"ELEMENT_SET_NO":999,"REV_AT_EPOCH":23041,"BSTAR":7.1456e-5,"MEAN_MOTION_DOT":4.0e-7,"MEAN_MOTION_DDOT":0},{"OBJECT_NAME":"ONEWEB-0216","OBJECT_ID":"2021-045AL","EPOCH":"2026-03-03T14:56:27.494016","MEAN_MOTION":13.15532454,"ECCENTRICITY":0.0001164,"INCLINATION":87.8948,"RA_OF_ASC_NODE":280.2698,"ARG_OF_PERICENTER":84.9511,"MEAN_ANOMALY":275.1752,"EPHEMERIS_TYPE":0,"CLASSIFICATION_TYPE":"U","NORAD_CAT_ID":48801,"ELEMENT_SET_NO":999,"REV_AT_EPOCH":23042,"BSTAR":-0.0050801,"MEAN_MOTION_DOT":-1.899e-5,"MEAN_MOTION_DDOT":0},{"OBJECT_NAME":"ONEWEB-0239","OBJECT_ID":"2021-045AM","EPOCH":"2026-03-03T15:03:16.627392","MEAN_MOTION":13.15547238,"ECCENTRICITY":0.0002119,"INCLINATION":87.8945,"RA_OF_ASC_NODE":280.284,"ARG_OF_PERICENTER":109.271,"MEAN_ANOMALY":250.865,"EPHEMERIS_TYPE":0,"CLASSIFICATION_TYPE":"U","NORAD_CAT_ID":48802,"ELEMENT_SET_NO":999,"REV_AT_EPOCH":23046,"BSTAR":-0.00019218,"MEAN_MOTION_DOT":-6.0e-7,"MEAN_MOTION_DDOT":0},{"OBJECT_NAME":"ONEWEB-0249","OBJECT_ID":"2021-060A","EPOCH":"2026-03-03T13:39:31.711392","MEAN_MOTION":13.16593044,"ECCENTRICITY":0.0001731,"INCLINATION":87.9,"RA_OF_ASC_NODE":249.7892,"ARG_OF_PERICENTER":96.6371,"MEAN_ANOMALY":263.4957,"EPHEMERIS_TYPE":0,"CLASSIFICATION_TYPE":"U","NORAD_CAT_ID":48967,"ELEMENT_SET_NO":999,"REV_AT_EPOCH":22571,"BSTAR":0.0002492,"MEAN_MOTION_DOT":1.08e-6,"MEAN_MOTION_DDOT":0},{"OBJECT_NAME":"ONEWEB-0250","OBJECT_ID":"2021-060B","EPOCH":"2026-03-03T12:02:06.870624","MEAN_MOTION":13.25827275,"ECCENTRICITY":0.00026531,"INCLINATION":87.9,"RA_OF_ASC_NODE":247.9027,"ARG_OF_PERICENTER":89.1129,"MEAN_ANOMALY":271.0311,"EPHEMERIS_TYPE":0,"CLASSIFICATION_TYPE":"U","NORAD_CAT_ID":48968,"ELEMENT_SET_NO":999,"REV_AT_EPOCH":22621,"BSTAR":0.00010898132,"MEAN_MOTION_DOT":6.1e-7,"MEAN_MOTION_DDOT":0}]
